NORAD_CAT_ID,OBJECT_NAME,OBJECT_TYPE,EPOCH,MEAN_MOTION,ECCENTRICITY,INCLINATION,RA_OF_ASC_NODE,ARG_OF_PERICENTER,MEAN_ANOMALY,BSTAR,MEAN_MOTION_DOT,MEAN_MOTION_DDOT,TLE_LINE0,TLE_LINE1,TLE_LINE2,SEMIMAJOR_AXIS,PERIOD,APOGEE,PERIGEE,DECAYED
52367.0,STARLINK-3817,PAYLOAD,2022-11-21 11:18:22,15.0884454,0.0002826,53.2147,195.0594,30.7899,329.3258,0.00011334,1.516e-05,0.0,0 STARLINK-3817,1 52367U 22045AN  22325.47108925  .00001516  00000-0  11334-3 0  9994,2 52367  53.2147 195.0594 0002826  30.7899 329.3258 15.08844540 34125,6917.8669999999975,95.437,541.687,537.7769999999998,0.0
52367.0,STARLINK-3817,PAYLOAD,2022-11-21 22:26:04,15.08832276,0.0003097,53.2146,192.9789,29.925,330.1918,-9.0565e-05,-1.73e-05,0.0,0 STARLINK-3817,1 52367U 22045AN  22325.93477396 -.00001730  00000-0 -90565-4 0  9990,2 52367  53.2146 192.9789 0003097  29.9250 330.1918 15.08832276 34191,6917.904,95.438,541.911,537.627,0.0
52367.0,STARLINK-3817,PAYLOAD,2022-11-22 01:36:50,15.08834646,0.0002872,53.2147,192.3829,32.533,327.5839,-7.5674e-05,-1.493e-05,0.0,0 STARLINK-3817,1 52367U 22045AN  22326.06725493 -.00001493  00000-0 -75674-4 0  9999,2 52367  53.2147 192.3829 0002872  32.5330 327.5839 15.08834646 34218,6917.897,95.438,541.749,537.775,0.0
52367.0,STARLINK-3817,PAYLOAD,2022-11-22 12:44:33,15.08833824,0.0003178,53.2146,190.3024,28.2158,331.9006,1.7383e-05,-1.2e-07,0.0,0 STARLINK-3817,1 52367U 22045AN  22326.53093823 -.00000012  00000-0  17383-4 0  9994,2 52367  53.2146 190.3024 0003178  28.2158 331.9006 15.08833824 34281,6917.899,95.438,541.9630000000002,537.566,0.0
52367.0,STARLINK-3817,PAYLOAD,2022-11-22 20:41:28,15.08837465,0.0002944,53.2145,188.8147,31.5396,328.5772,2.755e-05,1.5e-06,0.0,0 STARLINK-3817,1 52367U 22045AN  22326.86213653  .00000150  00000-0  27550-4 0  9994,2 52367  53.2145 188.8147 0002944  31.5396 328.5772 15.08837465 34332,6917.888000000001,95.438,541.79,537.717,0.0
52367.0,STARLINK-3817,PAYLOAD,2022-11-23 10:59:56,15.08844798,0.0002822,53.2143,186.1378,33.445,326.672,8.355700000000001e-05,1.042e-05,0.0,0 STARLINK-3817,1 52367U 22045AN  22327.45829545  .00001042  00000-0  83557-4 0  9993,2 52367  53.2143 186.1378 0002822  33.4450 326.6720 15.08844798 34423,6917.866,95.437,541.683,537.779,0.0
52367.0,STARLINK-3817,PAYLOAD,2022-11-23 18:56:52,15.08846364,0.0002671,53.2142,184.6513,37.9522,322.1658,0.000289,4.315e-05,0.0,0 STARLINK-3817,1 52367U 22045AN  22327.78949561  .00004315  00000-0  28900-3 0  9996,2 52367  53.2142 184.6513 0002671  37.9522 322.1658 15.08846364 34474,6917.861,95.437,541.5740000000002,537.878,0.0
52367.0,STARLINK-3817,PAYLOAD,2022-11-24 10:50:44,15.08834492,0.0002714,53.2156,181.6778,37.4185,322.6995,8.1541e-05,1.009e-05,0.0,0 STARLINK-3817,1 52367U 22045AN  22328.45190263  .00001009  00000-0  81541-4 0  9996,2 52367  53.2156 181.6778 0002714  37.4185 322.6995 15.08834492 34576,6917.897,95.438,541.64,537.885,0.0
52367.0,STARLINK-3817,PAYLOAD,2022-11-24 12:26:07,15.088349,0.0002723,53.2156,181.3806,37.5145,322.6036,5.070600000000001e-05,5.18e-06,0.0,0 STARLINK-3817,1 52367U 22045AN  22328.51814237  .00000518  00000-0  50706-4 0  9990,2 52367  53.2156 181.3806 0002723  37.5145 322.6036 15.08834900 34583,6917.896,95.438,541.645,537.877,0.0
52367.0,STARLINK-3817,PAYLOAD,2022-11-24 14:01:30,15.08834266,0.000261,53.2156,181.083,40.564,319.5546,4.1995e-05,3.8e-06,0.0,0 STARLINK-3817,1 52367U 22045AN  22328.58438252  .00000380  00000-0  41995-4 0  9993,2 52367  53.2156 181.0830 0002610  40.5640 319.5546 15.08834266 34593,6917.898,95.438,541.568,537.957,0.0
52367.0,STARLINK-3817,PAYLOAD,2022-11-25 10:41:31,15.08842331,0.0002659,53.2166,177.2165,40.6339,319.4851,8.9384e-05,1.134e-05,0.0,0 STARLINK-3817,1 52367U 22045AN  22329.44550270  .00001134  00000-0  89384-4 0  9996,2 52367  53.2166 177.2165 0002659  40.6339 319.4851 15.08842331 34726,6917.873000000001,95.437,541.578,537.899,0.0
52367.0,STARLINK-3817,PAYLOAD,2022-11-25 17:03:03,15.08841461,0.0002844,53.2157,176.0276,37.0278,323.091,0.0001435,1.996e-05,0.0,0 STARLINK-3817,1 52367U 22045AN  22329.71046296  .00001996  00000-0  14350-3 0  9990,2 52367  53.2157 176.0276 0002844  37.0278 323.0910 15.08841461 34768,6917.876,95.437,541.7080000000002,537.773,0.0
52367.0,STARLINK-3817,PAYLOAD,2022-11-25 20:13:51,15.08828277,0.0002918999999999,53.2156,175.4329,40.3048,319.816,0.00061081,9.443e-05,0.0,0 STARLINK-3817,1 52367U 22045AN  22329.84295280  .00009443  00000-0  61081-3 0  9991,2 52367  53.2156 175.4329 0002919  40.3048 319.8160 15.08828277 34786,6917.916,95.438,541.8009999999998,537.762,0.0
52367.0,STARLINK-3817,PAYLOAD,2022-11-26 20:04:36,15.08850583,0.0003021,53.2156,170.9722,39.9338,320.1876,0.00028321,4.223e-05,0.0,0 STARLINK-3817,1 52367U 22045AN  22330.83653777  .00004223  00000-0  28321-3 0  9992,2 52367  53.2156 170.9722 0003021  39.9338 320.1876 15.08850583 34935,6917.848000000001,95.437,541.803,537.623,0.0
52367.0,STARLINK-3817,PAYLOAD,2022-11-27 10:23:05,15.08836562,0.0003033,53.2155,168.2955,41.4211,318.7011,-1.788e-05,-5.73e-06,0.0,0 STARLINK-3817,1 52367U 22045AN  22331.43270318 -.00000573  00000-0 -17880-4 0  9990,2 52367  53.2155 168.2955 0003033  41.4211 318.7011 15.08836562 35029,6917.891,95.438,541.854,537.658,0.0
52367.0,STARLINK-3817,PAYLOAD,2022-11-27 19:55:24,15.08839754,0.0003003,53.2165,166.5111,41.9625,318.1597,4.4691e-05,4.23e-06,0.0,0 STARLINK-3817,1 52367U 22045AN  22331.83014253  .00000423  00000-0  44691-4 0  9990,2 52367  53.2165 166.5111 0003003  41.9625 318.1597 15.08839754 35081,6917.880999999999,95.438,541.8240000000002,537.669,0.0
52367.0,STARLINK-3817,PAYLOAD,2022-11-28 13:24:38,15.08840914,0.000299,53.2167,163.2408,42.0188,318.1033,4.8237e-05,4.79e-06,0.0,0 STARLINK-3817,1 52367U 22045AN  22332.55878013  .00000479  00000-0  48237-4 0  9993,2 52367  53.2167 163.2408 0002990  42.0188 318.1033 15.08840914 35193,6917.878000000002,95.437,541.811,537.674,0.0
52367.0,STARLINK-3817,PAYLOAD,2022-11-28 22:56:57,15.08842912,0.0003023,53.2166,161.4566,42.7119,317.4108,5.7268e-05,6.23e-06,0.0,0 STARLINK-3817,1 52367U 22045AN  22332.95621797  .00000623  00000-0  57268-4 0  9997,2 52367  53.2166 161.4566 0003023  42.7119 317.4108 15.08842912 35258,6917.871,95.437,541.828,537.645,0.0
52367.0,STARLINK-3817,PAYLOAD,2022-11-29 13:15:25,15.08839881,0.0003063,53.2167,158.7802,43.8552,316.2683,0.00010262,1.345e-05,0.0,0 STARLINK-3817,1 52367U 22045AN  22333.55237905  .00001345  00000-0  10262-3 0  9992,2 52367  53.2167 158.7802 0003063  43.8552 316.2683 15.08839881 35344,6917.880999999999,95.438,541.865,537.627,0.0
52367.0,STARLINK-3817,PAYLOAD,2022-11-29 22:47:45,15.08829236,0.0003071,53.2167,156.9963,44.3617,315.7621,-1.1598e-06,-3.07e-06,0.0,0 STARLINK-3817,1 52367U 22045AN  22333.94983024 -.00000307  00000-0 -11598-5 0  9999,2 52367  53.2167 156.9963 0003071  44.3617 315.7621 15.08829236 35405,6917.913000000001,95.438,541.903,537.654,0.0
52367.0,STARLINK-3817,PAYLOAD,2022-11-30 11:30:50,15.08831671,0.0002943,53.2171,154.6169,45.2167,314.9064,2.2617e-06,-2.53e-06,0.0,0 STARLINK-3817,1 52367U 22045AN  22334.47975056 -.00000253  00000-0  22617-5 0  9997,2 52367  53.2171 154.6169 0002943  45.2167 314.9064 15.08831671 35486,6917.906,95.438,541.807,537.735,0.0
52367.0,STARLINK-3817,PAYLOAD,2022-11-30 22:38:32,15.08835208,0.0002974,53.2171,152.5354,45.7964,314.3272,-1.3299e-05,-5e-06,0.0,0 STARLINK-3817,1 52367U 22045AN  22334.94343064 -.00000500  00000-0 -13299-4 0  9998,2 52367  53.2171 152.5354 0002974  45.7964 314.3272 15.08835208 35556,6917.895,95.438,541.817,537.703,0.0
52367.0,STARLINK-3817,PAYLOAD,2022-12-01 14:32:23,15.08831849,0.0003027,53.217,149.5617,45.3483,314.7756,9.7095e-05,1.257e-05,0.0,0 STARLINK-3817,1 52367U 22045AN  22335.60583168  .00001257  00000-0  97095-4 0  9997,2 52367  53.2170 149.5617 0003027  45.3483 314.7756 15.08831849 35654,6917.905,95.438,541.864,537.6759999999998,0.0
52367.0,STARLINK-3817,PAYLOAD,2022-12-02 11:12:24,15.08837696,0.0003022,53.217,145.6957,47.8748,312.2501,0.0001199,1.62e-05,0.0,0 STARLINK-3817,1 52367U 22045AN  22336.46695141  .00001620  00000-0  11990-3 0  9990,2 52367  53.2170 145.6957 0003022  47.8748 312.2501 15.08837696 35785,6917.887,95.438,541.8430000000002,537.6619999999998,0.0
52367.0,STARLINK-3817,PAYLOAD,2022-12-02 14:23:10,15.08840287,0.0003105,53.217,145.1013,48.3997,311.7261,0.00013045,1.788e-05,0.0,0 STARLINK-3817,1 52367U 22045AN  22336.59943003  .00001788  00000-0  13045-3 0  9995,2 52367  53.2170 145.1013 0003105  48.3997 311.7261 15.08840287 35807,6917.88,95.438,541.893,537.597,0.0
52367.0,STARLINK-3817,PAYLOAD,2022-12-03 11:03:11,15.08847873,0.0003136,53.217,141.2354,50.1418,309.985,0.00014686,2.05e-05,0.0,0 STARLINK-3817,1 52367U 22045AN  22337.46054407  .00002050  00000-0  14686-3 0  9998,2 52367  53.2170 141.2354 0003136  50.1418 309.9850 15.08847873 35930,6917.856,95.437,541.891,537.552,0.0
52367.0,STARLINK-3817,PAYLOAD,2022-12-03 17:24:43,15.08851462,0.000316,53.2171,140.0461,50.5811,309.546,0.00015276,2.144e-05,0.0,0 STARLINK-3817,1 52367U 22045AN  22337.72550072  .00002144  00000-0  15276-3 0  9996,2 52367  53.2171 140.0461 0003160  50.5811 309.5460 15.08851462 35971,6917.845,95.437,541.896,537.524,0.0
52367.0,STARLINK-3817,PAYLOAD,2022-12-04 10:53:58,15.08843244,0.0003159,53.2167,136.7746,53.1278,307.0004,4.0918e-05,3.63e-06,0.0,0 STARLINK-3817,1 52367U 22045AN  22338.45414715  .00000363  00000-0  40918-4 0  9993,2 52367  53.2167 136.7746 0003159  53.1278 307.0004 15.08843244 36087,6917.87,95.437,541.9209999999998,537.55,0.0
52367.0,STARLINK-3817,PAYLOAD,2022-12-04 17:15:30,15.08845566,0.0003187,53.2169,135.5858,52.6356,307.4926,5.673600000000003e-05,6.15e-06,0.0,0 STARLINK-3817,1 52367U 22045AN  22338.71910439  .00000615  00000-0  56736-4 0  9991,2 52367  53.2169 135.5858 0003187  52.6356 307.4926 15.08845566 36123,6917.863,95.437,541.933,537.524,0.0
